0 COSMOS 1275 DEB
1 12727U 81053BU  13281.60697306  .00001070  00000-0  90235-3 0  1787
2 12727 083.2796 118.1853 0097844 110.8947 309.4691 13.84704570615288
0 COSMOS 1275 DEB
1 12727U 81053BU  13283.93595538  .00001325  00000-0  11204-2 0  1791
2 12727 083.2794 116.5149 0097936 104.3299 039.2368 13.84712155615610
0 COSMOS 1275 DEB
1 12727U 81053BU  13285.96204770  .00001255  00000-0  10605-2 0  1809
2 12727 083.2792 115.0615 0097929 098.6142 059.1719 13.84717514615899
0 COSMOS 1275 DEB
1 12727U 81053BU  13287.98428528  .00001659  00000-0  14066-2 0  1816
2 12727 083.2792 113.6109 0097893 092.9166 059.9224 13.84724050616178
0 COSMOS 1275 DEB
1 12727U 81053BU  13290.28938927  .00001443  00000-0  12211-2 0  1824
2 12727 083.2796 111.9576 0097833 086.4014 030.8281 13.84730820616493
0 COSMOS 1275 DEB
1 12727U 81053BU  13292.51647480  .00001434  00000-0  12139-2 0  1833
2 12727 083.2799 110.3602 0097673 080.0314 332.9399 13.84736545616805
0 COSMOS 1275 DEB
1 12727U 81053BU  13294.54122568  .00001473  00000-0  12469-2 0  1843
2 12727 083.2800 108.9080 0097680 074.3861 346.3011 13.84742345617088
